[{"OBJECT_NAME":"STARLINK-35699","OBJECT_ID":"2025-268A","EPOCH":"2026-03-09T03:48:31.739616","MEAN_MOTION":15.27557802,"ECCENTRICITY":0.00017558,"INCLINATION":43.0027,"RA_OF_ASC_NODE":350.493,"ARG_OF_PERICENTER":256.2018,"MEAN_ANOMALY":103.8638,"EPHEMERIS_TYPE":0,"CLASSIFICATION_TYPE":"U","NORAD_CAT_ID":66557,"ELEMENT_SET_NO":999,"REV_AT_EPOCH":1787,"BSTAR":0.0012539595,"MEAN_MOTION_DOT":0.00034382,"MEAN_MOTION_DDOT":0},{"OBJECT_NAME":"PELICAN-6","OBJECT_ID":"2025-276AP","EPOCH":"2026-03-09T16:58:12.890496","MEAN_MOTION":15.2637798,"ECCENTRICITY":0.0003569,"INCLINATION":97.4276,"RA_OF_ASC_NODE":144.2072,"ARG_OF_PERICENTER":157.8575,"MEAN_ANOMALY":202.2819,"EPHEMERIS_TYPE":0,"CLASSIFICATION_TYPE":"U","NORAD_CAT_ID":66703,"ELEMENT_SET_NO":999,"REV_AT_EPOCH":1533,"BSTAR":0.0029725783,"MEAN_MOTION_DOT":0.00077979,"MEAN_MOTION_DDOT":0}]
